NORAD_CAT_ID,OBJECT_NAME,OBJECT_TYPE,EPOCH,MEAN_MOTION,ECCENTRICITY,INCLINATION,RA_OF_ASC_NODE,ARG_OF_PERICENTER,MEAN_ANOMALY,BSTAR,MEAN_MOTION_DOT,MEAN_MOTION_DDOT,TLE_LINE0,TLE_LINE1,TLE_LINE2,SEMIMAJOR_AXIS,PERIOD,APOGEE,PERIGEE,DECAYED
52608.0,STARLINK-3979,PAYLOAD,2024-02-17 03:37:39,15.08844377,0.0001849,53.2173,52.9026,101.1234,258.9966,0.00012464,1.696e-05,0.0,0 STARLINK-3979,1 52608U 22052L   24048.15115649  .00001696  00000-0  12464-3 0  9994,2 52608  53.2173  52.9026 0001849 101.1234 258.9966 15.08844377 97774,6917.867,95.437,541.011,538.453,0.0
52608.0,STARLINK-3979,PAYLOAD,2024-02-17 09:59:12,15.08851055,0.0001518,53.2169,51.7144,97.3859,262.7305,0.00015778,2.225e-05,0.0,0 STARLINK-3979,1 52608U 22052L   24048.41611322  .00002225  00000-0  15778-3 0  9992,2 52608  53.2169  51.7144 0001518  97.3859 262.7305 15.08851055 97444,6917.847,95.437,540.762,538.661,0.0
52608.0,STARLINK-3979,PAYLOAD,2024-02-18 03:28:29,15.08805318,0.0001795,53.2159,48.443,105.7465,254.3726,-0.00035984,-6.005e-05,0.0,0 STARLINK-3979,1 52608U 22052L   24049.14478682 -.00006005  00000-0 -35984-3 0  9996,2 52608  53.2159  48.4430 0001795 105.7465 254.3726 15.08805318 97926,6917.986,95.44,541.093,538.61,0.0
52608.0,STARLINK-3979,PAYLOAD,2024-02-18 09:50:01,15.08835862,0.000177,53.2165,47.2538,110.1354,249.9829,0.00031033,4.654e-05,0.0,0 STARLINK-3979,1 52608U 22052L   24049.40973867  .00004654  00000-0  31033-3 0  9997,2 52608  53.2165  47.2538 0001770 110.1354 249.9829 15.08835862 97964,6917.893,95.438,540.983,538.534,0.0
52608.0,STARLINK-3979,PAYLOAD,2024-02-19 03:19:14,15.08857911,0.0001323,53.2175,43.9831,96.9765,263.1378,0.00044178,6.753e-05,0.0,0 STARLINK-3979,1 52608U 22052L   24050.13836690  .00006753  00000-0  44178-3 0  9997,2 52608  53.2175  43.9831 0001323  96.9765 263.1378 15.08857911 98074,6917.826,95.436,540.606,538.775,0.0
52608.0,STARLINK-3979,PAYLOAD,2024-02-19 06:30:01,15.08865291,0.0001339,53.2167,43.3903,93.9204,266.1941,0.00073099,0.00011373,0.0,0 STARLINK-3979,1 52608U 22052L   24050.27084777  .00011373  00000-0  73099-3 0  9991,2 52608  53.2167  43.3903 0001339  93.9204 266.1941 15.08865291 97721,6917.803,95.436,540.594,538.742,0.0
52608.0,STARLINK-3979,PAYLOAD,2024-02-19 16:02:19,15.08855986,0.0001477,53.2181,41.6067,95.1261,264.99,0.00049803,7.65e-05,0.0,0 STARLINK-3979,1 52608U 22052L   24050.66828303  .00007650  00000-0  49803-3 0  9994,2 52608  53.2181  41.6067 0001477  95.1261 264.9900 15.08855986 97786,6917.832,95.437,540.718,538.675,0.0
52608.0,STARLINK-3979,PAYLOAD,2024-02-20 03:10:01,15.08847357,0.0001478,53.217,39.526,93.9057,266.2104,-0.00017868,-3.131e-05,0.0,0 STARLINK-3979,1 52608U 22052L   24051.13196518 -.00003131  00000-0 -17868-3 0  9991,2 52608  53.2170  39.5260 0001478  93.9057 266.2104 15.08847357 98229,6917.858,95.437,540.745,538.7,0.0
52608.0,STARLINK-3979,PAYLOAD,2024-02-20 06:20:47,15.0884854,0.0001464,53.2171,38.9314,93.2285,266.8875,-0.00017629,-3.093e-05,0.0,0 STARLINK-3979,1 52608U 22052L   24051.26444277 -.00003093  00000-0 -17629-3 0  9995,2 52608  53.2171  38.9314 0001464  93.2285 266.8875 15.08848540 97870,6917.854,95.437,540.732,538.707,0.0
52608.0,STARLINK-3979,PAYLOAD,2024-02-20 15:53:06,15.08849194,0.0001478,53.2178,37.1478,92.8227,267.2934,0.00012233,1.66e-05,0.0,0 STARLINK-3979,1 52608U 22052L   24051.66188245  .00001660  00000-0  12233-3 0  9991,2 52608  53.2178  37.1478 0001478  92.8227 267.2934 15.08849194 97939,6917.852,95.437,540.74,538.695,0.0
52608.0,STARLINK-3979,PAYLOAD,2024-02-21 06:11:34,15.08856292,0.0001523,53.2176,34.4717,92.4831,267.6335,0.00068259,0.00010597,0.0,0 STARLINK-3979,1 52608U 22052L   24052.25804027  .00010597  00000-0  68259-3 0  9998,2 52608  53.2176  34.4717 0001523  92.4831 267.6335 15.08856292 98398,6917.831,95.437,540.749,538.642,0.0
52608.0,STARLINK-3979,PAYLOAD,2024-02-21 15:43:53,15.08847769,0.0001511,53.2176,32.6851,91.5375,268.579,0.00027497,4.092e-05,0.0,0 STARLINK-3979,1 52608U 22052L   24052.65547984  .00004092  00000-0  27497-3 0  9990,2 52608  53.2176  32.6851 0001511  91.5375 268.5790 15.08847769 98458,6917.857,95.437,540.767,538.676,0.0
52608.0,STARLINK-3979,PAYLOAD,2024-02-21 22:05:26,15.08844791,0.0001829,53.2177,31.4984,89.2893,270.8309,0.00016381,2.32e-05,0.0,0 STARLINK-3979,1 52608U 22052L   24052.92044232  .00002320  00000-0  16381-3 0  9990,2 52608  53.2177  31.4984 0001829  89.2893 270.8309 15.08844791 98122,6917.866,95.437,540.996,538.465,0.0
52608.0,STARLINK-3979,PAYLOAD,2024-02-22 04:26:58,15.08837819,0.0001648,53.2186,30.3089,89.3202,270.7979,-7.5941e-07,-3e-06,0.0,0 STARLINK-3979,1 52608U 22052L   24053.18540449 -.00000300  00000-0 -75941-6 0  9998,2 52608  53.2186  30.3089 0001648  89.3202 270.7979 15.08837819 98530,6917.887,95.438,540.892,538.612,0.0
52608.0,STARLINK-3979,PAYLOAD,2024-02-22 07:37:44,15.08845362,0.000144,53.2174,29.7134,92.344,267.7717,0.00019379,2.798e-05,0.0,0 STARLINK-3979,1 52608U 22052L   24053.31788168  .00002798  00000-0  19379-3 0  9996,2 52608  53.2174  29.7134 0001440  92.3440 267.7717 15.08845362 98187,6917.864,95.437,540.725,538.733,0.0
52608.0,STARLINK-3979,PAYLOAD,2024-02-22 15:34:40,15.08836034,0.0001351,53.2172,28.2248,87.0821,273.0326,0.00012469,1.697e-05,0.0,0 STARLINK-3979,1 52608U 22052L   24053.64908446  .00001697  00000-0  12469-3 0  9995,2 52608  53.2172  28.2248 0001351  87.0821 273.0326 15.08836034 98238,6917.893,95.438,540.692,538.823,0.0
52608.0,STARLINK-3979,PAYLOAD,2024-02-23 04:17:45,15.08844458,0.0001452,53.2178,25.846,84.7176,275.3982,0.0001303,1.787e-05,0.0,0 STARLINK-3979,1 52608U 22052L   24054.17900317  .00001787  00000-0  13030-3 0  9998,2 52608  53.2178  25.8460 0001452  84.7176 275.3982 15.08844458 98313,6917.867,95.437,540.736,538.727,0.0
52608.0,STARLINK-3979,PAYLOAD,2024-02-23 15:25:27,15.08842044,0.0001431,53.2181,23.7627,86.4769,273.6387,0.00017005,2.42e-05,0.0,0 STARLINK-3979,1 52608U 22052L   24054.64268496  .00002420  00000-0  17005-3 0  9996,2 52608  53.2181  23.7627 0001431  86.4769 273.6387 15.08842044 98750,6917.874,95.437,540.729,538.749,0.0
52608.0,STARLINK-3979,PAYLOAD,2024-02-23 21:47:00,15.08839299,0.0001464,53.2172,22.5769,80.0459,280.0698,0.00018896,2.721e-05,0.0,0 STARLINK-3979,1 52608U 22052L   24054.90764775  .00002721  00000-0  18896-3 0  9999,2 52608  53.2172  22.5769 0001464  80.0459 280.0698 15.08839299 98425,6917.883,95.438,540.76,538.735,0.0
52608.0,STARLINK-3979,PAYLOAD,2024-02-24 07:19:19,15.08846188,0.0001447,53.2182,20.7903,85.7464,274.3694,0.00018708,2.691e-05,0.0,0 STARLINK-3979,1 52608U 22052L   24055.30508532  .00002691  00000-0  18708-3 0  9999,2 52608  53.2182  20.7903 0001447  85.7464 274.3694 15.08846188 98488,6917.861,95.437,540.727,538.725,0.0
52608.0,STARLINK-3979,PAYLOAD,2024-02-24 15:16:15,15.08843508,0.00015,53.2186,19.3027,88.6529,271.4635,0.00017439,2.489e-05,0.0,0 STARLINK-3979,1 52608U 22052L   24055.63628725  .00002489  00000-0  17439-3 0  9997,2 52608  53.2186  19.3027 0001500  88.6529 271.4635 15.08843508 98900,6917.87,95.437,540.772,538.697,0.0
52608.0,STARLINK-3979,PAYLOAD,2024-02-25 07:10:06,15.08844563,0.0001612,53.219,16.3277,97.2617,262.8559,0.0004825,7.4e-05,0.0,0 STARLINK-3979,1 52608U 22052L   24056.29868608  .00007400  00000-0  48250-3 0  9999,2 52608  53.2190  16.3277 0001612  97.2617 262.8559 15.08844563 98638,6917.866,95.437,540.847,538.616,0.0
52608.0,STARLINK-3979,PAYLOAD,2024-02-26 03:50:06,15.0884976,0.0001496,53.2184,12.4652,82.286,277.8302,0.00022504,3.296e-05,0.0,0 STARLINK-3979,1 52608U 22052L   24057.15980164  .00003296  00000-0  22504-3 0  9990,2 52608  53.2184  12.4652 0001496  82.2860 277.8302 15.08849760 99131,6917.851,95.437,540.75,538.681,0.0
52608.0,STARLINK-3979,PAYLOAD,2024-02-26 21:19:22,15.08839163,0.0001526,53.219,9.1928,84.816,275.3006,2.3831e-05,9.1e-07,0.0,0 STARLINK-3979,1 52608U 22052L   24057.88844926  .00000091  00000-0  23831-4 0  9990,2 52608  53.2190   9.1928 0001526  84.8160 275.3006 15.08839163 98872,6917.883,95.438,540.804,538.692,0.0
52608.0,STARLINK-3979,PAYLOAD,2024-02-27 02:05:31,15.08840168,0.0001444,53.219,8.3006,94.1086,266.0071,2.2003e-05,6.2e-07,0.0,0 STARLINK-3979,1 52608U 22052L   24058.08716600  .00000062  00000-0  22003-4 0  9998,2 52608  53.2190   8.3006 0001444  94.1086 266.0071 15.08840168 99271,6917.88,95.438,540.744,538.746,0.0
52608.0,STARLINK-3979,PAYLOAD,2024-02-27 13:13:12,15.0884062,0.0001484,53.2192,6.2181,99.2159,260.9001,-6.6579e-06,-3.94e-06,0.0,0 STARLINK-3979,1 52608U 22052L   24058.55084470 -.00000394  00000-0 -66579-5 0  9990,2 52608  53.2192   6.2181 0001484  99.2159 260.9001 15.08840620 98970,6917.878,95.438,540.77,538.717,0.0
52608.0,STARLINK-3979,PAYLOAD,2024-02-27 21:10:08,15.08837879,0.0001581,53.2194,4.7336,105.4967,254.62,-4.7447e-05,-1.043e-05,0.0,0 STARLINK-3979,1 52608U 22052L   24058.88204835 -.00001043  00000-0 -47447-4 0  9999,2 52608  53.2194   4.7336 0001581 105.4967 254.6200 15.08837879 99022,6917.887,95.438,540.846,538.658,0.0
52608.0,STARLINK-3979,PAYLOAD,2024-02-28 03:31:41,15.08842323,0.0001495,53.2191,3.5457,106.3229,253.7927,2.9758e-05,1.86e-06,0.0,0 STARLINK-3979,1 52608U 22052L   24059.14700609  .00000186  00000-0  29758-4 0  9999,2 52608  53.2191   3.5457 0001495 106.3229 253.7927 15.08842323 99436,6917.873,95.437,540.773,538.704,0.0
52608.0,STARLINK-3979,PAYLOAD,2024-02-28 13:04:00,15.08842781,0.0001299,53.2181,1.7593,96.3027,263.8113,5.2745e-05,5.52e-06,0.0,0 STARLINK-3979,1 52608U 22052L   24059.54444446  .00000552  00000-0  52745-4 0  9996,2 52608  53.2181   1.7593 0001299  96.3027 263.8113 15.08842781 99125,6917.872,95.437,540.636,538.838,0.0
52608.0,STARLINK-3979,PAYLOAD,2024-02-29 03:22:29,15.08835573,0.0001494,53.22,359.0847,102.7001,257.4158,9.9542e-05,1.296e-05,0.0,0 STARLINK-3979,1 52608U 22052L   24060.14061453  .00001296  00000-0  99542-4 0  9999,2 52608  53.2200 359.0847 0001494 102.7001 257.4158 15.08835573 99588,6917.894,95.438,540.792,538.725,0.0
